{
  "type": "FeatureCollection",
  "features": [
    {
      "type": "Feature",
      "properties": {
        "norad_id": 50032,
        "name": "COSMOS 1408 DEB",
        "group": "cosmos-1408-debris",
        "lat": -15.051149078815078,
        "lon": 63.62219096869647,
        "alt_km": 437.76467436425355,
        "timestamp": "2025-12-05T18:53:13.552498+00:00",
        "meta_object_name": "COSMOS 1408 DEB",
        "meta_object_id": "1982-092RU",
        "meta_epoch": "2025-12-05T06:31:19.541280",
        "meta_mean_motion": 15.45578646,
        "meta_eccentricity": 0.00147654,
        "meta_inclination": 82.5653,
        "meta_ra_of_asc_node": 66.1624,
        "meta_arg_of_pericenter": 237.7791,
        "meta_mean_anomaly": 122.2027,
        "meta_ephemeris_type": 0,
        "meta_classification_type": "U",
        "meta_norad_cat_id": 50032,
        "meta_element_set_no": 999,
        "meta_rev_at_epoch": 22488,
        "meta_bstar": 0.00019138736,
        "meta_mean_motion_dot": 9.277e-05,
        "meta_mean_motion_ddot": 0,
        "tle_line1": "1 50032U 82092RU  25339.27175395  .00009277  00000+0  19139-3 0  9992",
        "tle_line2": "2 50032  82.5653  66.1624 0014765 237.7791 122.2027 15.45578646224886"
      },
      "geometry": {
        "type": "Point",
        "coordinates": [
          63.62219096869647,
          -15.051149078815078
        ]
      }
    },
    {
      "type": "Feature",
      "properties": {
        "norad_id": 50058,
        "name": "COSMOS 1408 DEB",
        "group": "cosmos-1408-debris",
        "lat": 82.06738252711452,
        "lon": -171.97331180460185,
        "alt_km": 360.64667301598547,
        "timestamp": "2025-12-05T18:53:13.552520+00:00",
        "meta_object_name": "COSMOS 1408 DEB",
        "meta_object_id": "1982-092SW",
        "meta_epoch": "2025-12-05T07:44:20.866272",
        "meta_mean_motion": 15.63451747,
        "meta_eccentricity": 0.00162561,
        "meta_inclination": 82.6139,
        "meta_ra_of_asc_node": 77.1006,
        "meta_arg_of_pericenter": 125.0506,
        "meta_mean_anomaly": 235.2281,
        "meta_ephemeris_type": 0,
        "meta_classification_type": "U",
        "meta_norad_cat_id": 50058,
        "meta_element_set_no": 999,
        "meta_rev_at_epoch": 22688,
        "meta_bstar": 0.00050619425,
        "meta_mean_motion_dot": 0.00047214,
        "meta_mean_motion_ddot": 0,
        "tle_line1": "1 50058U 82092SW  25339.32246373  .00047214  00000+0  50619-3 0  9992",
        "tle_line2": "2 50058  82.6139  77.1006 0016256 125.0506 235.2281 15.63451747226881"
      },
      "geometry": {
        "type": "Point",
        "coordinates": [
          -171.97331180460185,
          82.06738252711452
        ]
      }
    },
    {
      "type": "Feature",
      "properties": {
        "norad_id": 50404,
        "name": "COSMOS 1408 DEB",
        "group": "cosmos-1408-debris",
        "lat": 30.874435235088562,
        "lon": -133.15825774864413,
        "alt_km": 645.6189089068494,
        "timestamp": "2025-12-05T18:53:13.552534+00:00",
        "meta_object_name": "COSMOS 1408 DEB",
        "meta_object_id": "1982-092ADS",
        "meta_epoch": "2025-12-05T02:51:55.351296",
        "meta_mean_motion": 15.12235764,
        "meta_eccentricity": 0.01753461,
        "meta_inclination": 82.2048,
        "meta_ra_of_asc_node": 222.8255,
        "meta_arg_of_pericenter": 225.2517,
        "meta_mean_anomaly": 133.4334,
        "meta_ephemeris_type": 0,
        "meta_classification_type": "U",
        "meta_norad_cat_id": 50404,
        "meta_element_set_no": 999,
        "meta_rev_at_epoch": 21078,
        "meta_bstar": 0.0046703506,
        "meta_mean_motion_dot": 0.00119144,
        "meta_mean_motion_ddot": 0,
        "tle_line1": "1 50404U 82092ADS 25339.11939064  .00119144  00000+0  46704-2 0  9991",
        "tle_line2": "2 50404  82.2048 222.8255 0175346 225.2517 133.4334 15.12235764210780"
      },
      "geometry": {
        "type": "Point",
        "coordinates": [
          -133.15825774864413,
          30.874435235088562
        ]
      }
    },
    {
      "type": "Feature",
      "properties": {
        "norad_id": 50621,
        "name": "COSMOS 1408 DEB",
        "group": "cosmos-1408-debris",
        "lat": -64.44337097290448,
        "lon": 65.58239929438582,
        "alt_km": 414.7892864286641,
        "timestamp": "2025-12-05T18:53:13.552545+00:00",
        "meta_object_name": "COSMOS 1408 DEB",
        "meta_object_id": "1982-092ALR",
        "meta_epoch": "2025-12-05T06:49:21.818784",
        "meta_mean_motion": 15.56082039,
        "meta_eccentricity": 0.00287898,
        "meta_inclination": 82.5718,
        "meta_ra_of_asc_node": 81.9388,
        "meta_arg_of_pericenter": 179.9157,
        "meta_mean_anomaly": 180.2108,
        "meta_ephemeris_type": 0,
        "meta_classification_type": "U",
        "meta_norad_cat_id": 50621,
        "meta_element_set_no": 999,
        "meta_rev_at_epoch": 22134,
        "meta_bstar": 0.00061371624,
        "meta_mean_motion_dot": 0.000438,
        "meta_mean_motion_ddot": 0,
        "tle_line1": "1 50621U 82092ALR 25339.28428031  .00043800  00000+0  61372-3 0  9991",
        "tle_line2": "2 50621  82.5718  81.9388 0028789 179.9157 180.2108 15.56082039221348"
      },
      "geometry": {
        "type": "Point",
        "coordinates": [
          65.58239929438582,
          -64.44337097290448
        ]
      }
    }
  ]
}